NORAD_CAT_ID,OBJECT_NAME,OBJECT_TYPE,EPOCH,MEAN_MOTION,ECCENTRICITY,INCLINATION,RA_OF_ASC_NODE,ARG_OF_PERICENTER,MEAN_ANOMALY,BSTAR,MEAN_MOTION_DOT,MEAN_MOTION_DDOT,TLE_LINE0,TLE_LINE1,TLE_LINE2,SEMIMAJOR_AXIS,PERIOD,APOGEE,PERIGEE,DECAYED
53246.0,STARLINK-4131,PAYLOAD,2023-02-14 20:04:44,15.08856059,0.0001153,53.2147,186.8454,85.0022,275.1102,0.0021742,0.00034499,0.0,0 STARLINK-4131,1 53246U 22086E   23045.83662051  .00034499  00000-0  21742-2 0  9990,2 53246  53.2147 186.8454 0001153  85.0022 275.1102 15.08856059 31837,6917.831,95.437,540.494,538.899,0.0
53246.0,STARLINK-4131,PAYLOAD,2023-02-15 02:26:16,15.08853381,2.82e-05,53.215,185.6555,154.1151,205.9855,0.00093967,0.00014704,0.0,0 STARLINK-4131,1 53246U 22086E   23046.10157618  .00014704  00000-0  93967-3 0  9995,2 53246  53.2150 185.6555 0000282 154.1151 205.9855 15.08853381 31878,6917.839,95.437,539.9,539.509,0.0
53246.0,STARLINK-4131,PAYLOAD,2023-02-15 13:33:58,15.08874966,0.0001183,53.2146,183.5743,95.8921,264.2206,0.0025579,0.00040695,0.0,0 STARLINK-4131,1 53246U 22086E   23046.56525721  .00040695  00000-0  25579-2 0  9990,2 53246  53.2146 183.5743 0001183  95.8921 264.2206 15.08874966 31337,6917.774,95.435,540.457,538.82,0.0
53246.0,STARLINK-4131,PAYLOAD,2023-02-15 19:55:30,15.08901954,0.0001146,53.2146,182.3851,90.2699,269.8425,0.003413,0.00054543,0.0,0 STARLINK-4131,1 53246U 22086E   23046.83020948  .00054543  00000-0  34130-2 0  9991,2 53246  53.2146 182.3851 0001146  90.2699 269.8425 15.08901954 31370,6917.691,95.434,540.349,538.763,0.0
53246.0,STARLINK-4131,PAYLOAD,2023-02-15 21:30:52,15.08912005,0.000114,53.2146,182.0881,88.3986,271.7137,0.0036409,0.00058251,0.0,0 STARLINK-4131,1 53246U 22086E   23046.89644642  .00058251  00000-0  36409-2 0  9991,2 53246  53.2146 182.0881 0001140  88.3986 271.7137 15.08912005 31990,6917.66,95.433,540.314,538.737,0.0
53246.0,STARLINK-4131,PAYLOAD,2023-02-16 15:00:07,15.08877062,0.0001048,53.2142,178.8161,130.7902,229.3181,0.0027927,0.00044484,0.0,0 STARLINK-4131,1 53246U 22086E   23047.62508339  .00044484  00000-0  27927-2 0  9993,2 53246  53.2142 178.8161 0001048 130.7902 229.3181 15.08877062 32102,6917.767,95.435,540.357,538.907,0.0
53246.0,STARLINK-4131,PAYLOAD,2023-02-16 18:10:53,15.08886953,0.0001157,53.2146,178.2214,116.0817,244.0294,0.0030503,0.00048655,0.0,0 STARLINK-4131,1 53246U 22086E   23047.75756057  .00048655  00000-0  30503-2 0  9997,2 53246  53.2146 178.2214 0001157 116.0817 244.0294 15.08886953 31514,6917.737,95.435,540.402,538.801,0.0
53246.0,STARLINK-4131,PAYLOAD,2023-02-17 14:50:54,15.08839413,0.000111,53.2154,174.3566,76.268,283.8436,0.0015582,0.00024597,0.0,0 STARLINK-4131,1 53246U 22086E   23048.61869036  .00024597  00000-0  15582-2 0  9994,2 53246  53.2154 174.3566 0001110  76.2680 283.8436 15.08839413 32254,6917.882,95.438,540.515,538.979,0.0
53246.0,STARLINK-4131,PAYLOAD,2023-02-17 19:37:04,15.08849727,0.0001216,53.2155,173.4637,75.094,285.0186,0.0022329,0.00035437,0.0,0 STARLINK-4131,1 53246U 22086E   23048.81741140  .00035437  00000-0  22329-2 0  9993,2 53246  53.2155 173.4637 0001216  75.0940 285.0186 15.08849727 31677,6917.851,95.437,540.557,538.874,0.0
53246.0,STARLINK-4131,PAYLOAD,2023-02-18 14:41:43,15.0883211,0.0001076,53.2164,169.8963,84.2194,275.8921,0.0018542,0.00029338,0.0,0 STARLINK-4131,1 53246U 22086E   23049.61230544  .00029338  00000-0  18542-2 0  9998,2 53246  53.2164 169.8963 0001076  84.2194 275.8921 15.08832110 31790,6917.905,95.438,540.514,539.025,0.0
53246.0,STARLINK-4131,PAYLOAD,2023-02-18 16:17:06,15.0883483,0.0001155,53.2161,169.5986,84.3474,275.765,0.0016912,0.00026726,0.0,0 STARLINK-4131,1 53246U 22086E   23049.67854563  .00026726  00000-0  16912-2 0  9994,2 53246  53.2161 169.5986 0001155  84.3474 275.7650 15.08834830 32418,6917.896,95.438,540.56,538.962,0.0
53246.0,STARLINK-4131,PAYLOAD,2023-02-19 14:32:30,15.08854807,0.0001279,53.2164,165.4368,78.2591,281.8545,0.0014549,0.00022952,0.0,0 STARLINK-4131,1 53246U 22086E   23050.60590697  .00022952  00000-0  14549-2 0  9995,2 53246  53.2164 165.4368 0001279  78.2591 281.8545 15.08854807 32551,6917.835,95.437,540.585,538.815,0.0
53246.0,STARLINK-4131,PAYLOAD,2023-02-20 08:01:44,15.08842573,0.0001181,53.2157,162.1634,59.2174,300.8935,0.0002465,3.638e-05,0.0,0 STARLINK-4131,1 53246U 22086E   23051.33454451  .00003638  00000-0  24650-3 0  9998,2 53246  53.2157 162.1634 0001181  59.2174 300.8935 15.08842573 32665,6917.873,95.437,540.555,538.921,0.0
53246.0,STARLINK-4131,PAYLOAD,2023-02-20 14:23:16,15.08855566,0.0001563,53.2186,160.9793,81.5009,278.616,0.00043753,6.685e-05,0.0,0 STARLINK-4131,1 53246U 22086E   23051.59950151  .00006685  00000-0  43753-3 0  9994,2 53246  53.2186 160.9793 0001563  81.5009 278.6160 15.08855566 32093,6917.833,95.437,540.779,538.617,0.0
53246.0,STARLINK-4131,PAYLOAD,2023-02-20 17:34:02,15.08868254,0.0001401,53.2163,160.3812,70.0337,290.0806,0.001097,0.00017227,0.0,0 STARLINK-4131,1 53246U 22086E   23051.73197860  .00017227  00000-0  10970-2 0  9998,2 53246  53.2163 160.3812 0001401  70.0337 290.0806 15.08868254 32725,6917.794,95.436,540.628,538.69,0.0
53246.0,STARLINK-4131,PAYLOAD,2023-02-21 12:38:40,15.08860269,0.0001339,53.2163,156.8135,73.1873,286.9266,0.0016988,0.00026867,0.0,0 STARLINK-4131,1 53246U 22086E   23052.52685964  .00026867  00000-0  16988-2 0  9998,2 53246  53.2163 156.8135 0001339  73.1873 286.9266 15.08860269 32847,6917.818,95.436,540.61,538.757,0.0
53246.0,STARLINK-4131,PAYLOAD,2023-02-21 19:00:12,15.08883534,0.0001468,53.2158,155.6239,66.7057,293.409,0.0022412,0.00035604,0.0,0 STARLINK-4131,1 53246U 22086E   23052.79181369  .00035604  00000-0  22412-2 0  9995,2 53246  53.2158 155.6239 0001468  66.7057 293.4090 15.08883534 32273,6917.747,95.435,540.628,538.597,0.0
53246.0,STARLINK-4131,PAYLOAD,2023-02-21 23:46:22,15.08839654,7.15e-05,53.2163,154.7311,117.4838,242.6227,-0.0003754,-6.257e-05,0.0,0 STARLINK-4131,1 53246U 22086E   23052.99053281 -.00006257  00000-0 -37540-3 0  9991,2 53246  53.2163 154.7311 0000715 117.4838 242.6227 15.08839654 32918,6917.881,95.438,540.241,539.252,0.0
53246.0,STARLINK-4131,PAYLOAD,2023-02-22 12:29:27,15.08849588,0.0001126,53.2155,152.3525,94.9412,265.1709,0.0018687,0.00029585,0.0,0 STARLINK-4131,1 53246U 22086E   23053.52045668  .00029585  00000-0  18687-2 0  9998,2 53246  53.2155 152.3525 0001126  94.9412 265.1709 15.08849588 32387,6917.851,95.437,540.495,538.937,0.0
53246.0,STARLINK-4131,PAYLOAD,2023-02-22 14:04:50,15.08853681,0.0001292,53.2157,152.0551,92.9401,267.1739,0.0020709,0.00032837,0.0,0 STARLINK-4131,1 53246U 22086E   23053.58669676  .00032837  00000-0  20709-2 0  9997,2 53246  53.2157 152.0551 0001292  92.9401 267.1739 15.08853681 33009,6917.839,95.437,540.597,538.81,0.0
53246.0,STARLINK-4131,PAYLOAD,2023-02-22 18:50:59,15.08869359,0.0001293,53.2154,151.1629,91.6718,268.4423,0.0021686,0.00034422,0.0,0 STARLINK-4131,1 53246U 22086E   23053.78541358  .00034422  00000-0  21686-2 0  9992,2 53246  53.2154 151.1629 0001293  91.6718 268.4423 15.08869359 32428,6917.791,95.436,540.55,538.761,0.0
53246.0,STARLINK-4131,PAYLOAD,2023-02-23 05:58:42,15.088336,9.55e-05,53.2147,149.0818,117.9416,242.1673,0.00064049,9.918e-05,0.0,0 STARLINK-4131,1 53246U 22086E   23054.24909911  .00009918  00000-0  64049-3 0  9990,2 53246  53.2147 149.0818 0000955 117.9416 242.1673 15.08833600 33109,6917.9,95.438,540.426,539.104,0.0
53246.0,STARLINK-4131,PAYLOAD,2023-02-23 12:20:14,15.0884165,9.95e-05,53.215,147.8917,106.3424,253.7677,0.0018638,0.000295,0.0,0 STARLINK-4131,1 53246U 22086E   23054.51406229  .00029500  00000-0  18638-2 0  9995,2 53246  53.2150 147.8917 0000995 106.3424 253.7677 15.08841650 32536,6917.875,95.437,540.429,539.052,0.0
53246.0,STARLINK-4131,PAYLOAD,2023-02-23 18:41:47,15.08851337,0.0001087,53.215,146.7026,100.6146,259.4969,0.0018904,0.00029935,0.0,0 STARLINK-4131,1 53246U 22086E   23054.77902260  .00029935  00000-0  18904-2 0  9997,2 53246  53.2150 146.7026 0001087 100.6146 259.4969 15.08851337 32570,6917.846,95.437,540.463,538.959,0.0
53246.0,STARLINK-4131,PAYLOAD,2023-02-24 05:49:29,15.08848327,7.76e-05,53.2151,144.6205,105.3234,254.7844,0.0016099,0.00025432,0.0,0 STARLINK-4131,1 53246U 22086E   23055.24270543  .00025432  00000-0  16099-2 0  9993,2 53246  53.2151 144.6205 0000776 105.3234 254.7844 15.08848327 33252,6917.855,95.437,540.257,539.183,0.0
53246.0,STARLINK-4131,PAYLOAD,2023-02-24 12:11:02,15.08851681,0.0001239,53.2162,143.4324,86.861,273.2524,0.00086908,0.00013575,0.0,0 STARLINK-4131,1 53246U 22086E   23055.50766483  .00013575  00000-0  86908-3 0  9997,2 53246  53.2162 143.4324 0001239  86.8610 273.2524 15.08851681 32683,6917.845,95.437,540.567,538.853,0.0
53246.0,STARLINK-4131,PAYLOAD,2023-02-24 16:57:11,15.08864742,0.0001148,53.215,142.5405,79.6884,280.4238,0.001422,0.00022431,0.0,0 STARLINK-4131,1 53246U 22086E   23055.70638119  .00022431  00000-0  14220-2 0  9991,2 53246  53.2150 142.5405 0001148  79.6884 280.4238 15.08864742 32710,6917.805,95.436,540.464,538.876,0.0
53246.0,STARLINK-4131,PAYLOAD,2023-02-25 12:01:49,15.08833828,0.0001015,53.2161,138.9714,94.1918,265.919,0.0011279,0.00017705,0.0,0 STARLINK-4131,1 53246U 22086E   23056.50127074  .00017705  00000-0  11279-2 0  9992,2 53246  53.2161 138.9714 0001015  94.1918 265.9190 15.08833828 33444,6917.899,95.438,540.466,539.062,0.0
53246.0,STARLINK-4131,PAYLOAD,2023-02-25 16:47:59,15.08840374,0.0001752,53.216,138.079,69.6425,290.4755,0.0012279,0.00019308,0.0,0 STARLINK-4131,1 53246U 22086E   23056.69999371  .00019308  00000-0  12279-2 0  9991,2 53246  53.2160 138.0790 0001752  69.6425 290.4755 15.08840374 32865,6917.879,95.438,540.956,538.532,0.0
53246.0,STARLINK-4131,PAYLOAD,2023-02-26 10:17:13,15.08867655,0.0001302,53.2154,134.8069,99.0085,261.1054,0.0012569,0.00019787,0.0,0 STARLINK-4131,1 53246U 22086E   23057.42862436  .00019787  00000-0  12569-2 0  9997,2 53246  53.2154 134.8069 0001302  99.0085 261.1054 15.08867655 32971,6917.796,95.436,540.562,538.76,0.0
